IRIDIUM 136             
1 42962U 17061H   24048.91484012  .00000184  00000+0  58621-4 0  9993
2 42962  86.3986  20.5649 0002079  79.6884 280.4546 14.34215414332962
